{"spkid": "50771087", "covariance": {"elements": [{"value": ".4320911544120354", "title": "eccentricity", "units": null, "sigma": 7.27481856680895e-08, "name": "e", "label": "e"}, {"label": "q", "units": "au", "value": "1.024619313821451", "title": "perihelion distance", "name": "q", "sigma": 1.33075444893208e-07}, {"label": "tp", "sigma": 1.08917512187162e-05, "name": "tp", "units": "TDB", "title": "time of perihelion passage", "value": "2457802.397623772850"}, {"label": "node", "units": "deg", "value": "313.8245049375636", "title": "longitude of the ascending node", "sigma": 1.33659303270695e-05, "name": "om"}, {"label": "peri", "units": "deg", "title": "argument of perihelion", "value": "171.7095418034373", "sigma": 1.49693381665124e-05, "name": "w"}, {"units": "deg", "title": "inclination", "value": "26.12921809674599", "name": "i", "sigma": 1.8107458145591e-05, "label": "i"}], "data": [["5.292298517998823E-15", "-9.599811816060571E-15", "2.547580132024963E-13", "4.356228125454618E-14", "1.355250722989597E-13", "-8.129873183066934E-13"], ["-9.599811816060571E-15", "1.770907403352529E-14", "-4.325791821960732E-13", "-8.726847299409736E-14", "-1.805762739006935E-13", "1.446632897111974E-12"], ["2.547580132024963E-13", "-4.325791821960732E-13", "1.186302446104068E-10", "-1.879437549761733E-11", "9.004853155444347E-11", "-3.793599134548904E-11"], ["4.356228125454618E-14", "-8.726847299409736E-14", "-1.879437549761733E-11", "1.786480935080763E-10", "-1.638763863159009E-10", "9.193321555606614E-11"], ["1.355250722989597E-13", "-1.805762739006935E-13", "9.004853155444347E-11", "-1.638763863159009E-10", "2.240810851434058E-10", "-1.297019121714003E-10"], ["-8.129873183066934E-13", "1.446632897111974E-12", "-3.793599134548904E-11", "9.193321555606614E-11", "-1.297019121714003E-10", "3.278800404943298E-10"]], "labels": ["e", "q", "tp", "node", "peri", "i"], "epoch": "2458131.5"}, "elements": [{"name": "e", "sigma": "7.2915E-8", "units": null, "title": "eccentricity", "value": ".4323454452054309", "label": "e"}, {"value": "1.803771702533184", "title": "semi-major axis", "units": "au", "name": "a", "sigma": "2.9994E-8", "label": "a"}, {"label": "q", "units": "au", "title": "perihelion distance", "value": "1.023919222752516", "name": "q", "sigma": "1.3343E-7"}, {"label": "i", "title": "inclination; angle with respect to x-y ecliptic plane", "value": "26.14447558659947", "units": "deg", "sigma": "1.8119E-5", "name": "i"}, {"label": "node", "sigma": "1.3359E-5", "name": "om", "title": "longitude of the ascending node", "value": "313.7775821621054", "units": "deg"}, {"title": "argument of perihelion", "value": "171.8623866849374", "units": "deg", "sigma": "1.4977E-5", "name": "w", "label": "peri"}, {"label": "M", "sigma": "3.5594E-5", "name": "ma", "title": "mean anomaly", "value": "301.9118659499733", "units": "deg"}, {"sigma": "9.1022E-5", "name": "tp", "units": "TDB", "value": "2461343.276162938280", "title": "time of perihelion passage", "label": "tp"}, {"label": "period", "units": "d", "value": "884.8522938181255", "title": "sidereal orbital period", "name": "per", "sigma": "2.2071E-5"}, {"label": "n", "title": "mean motion", "value": ".4068475637290885", "units": "deg/d", "name": "n", "sigma": "1.0148E-8"}, {"label": "Q", "name": "ad", "sigma": "4.2962E-8", "units": "au", "title": "aphelion distance", "value": "2.583624182313851"}], "epoch": "2461200.5"}